IRIDIUM 136             
1 42962U 17061H   24145.89307291  .00000473  00000+0  16169-3 0  9992
2 42962  86.3964 340.0626 0002150  78.8200 281.3237 14.34219759346863
